{
    "links": {
        "self": "http://www.neowsapp.com/rest/v1/neo/3610763?api_key=iIulBulltgU6a56xZRHN4H3l9WmuAYTsLGpBGhQ2"
    },
    "id": "3610763",
    "neo_reference_id": "3610763",
    "name": "(2012 TG146)",
    "designation": "2012 TG146",
    "nasa_jpl_url": "http://ssd.jpl.nasa.gov/sbdb.cgi?sstr=3610763",
    "absolute_magnitude_h": 24.1,
    "estimated_diameter": {
        "kilometers": {
            "estimated_diameter_min": 0.040230458,
            "estimated_diameter_max": 0.0899580388
        },
        "meters": {
            "estimated_diameter_min": 40.2304579834,
            "estimated_diameter_max": 89.9580388169
        },
        "miles": {
            "estimated_diameter_min": 0.0249980399,
            "estimated_diameter_max": 0.0558973165
        },
        "feet": {
            "estimated_diameter_min": 131.9896957704,
            "estimated_diameter_max": 295.1379320721
        }
    },
    "is_potentially_hazardous_asteroid": false,
    "close_approach_data": [
        {
            "close_approach_date": "2012-10-23",
            "close_approach_date_full": "2012-Oct-23 17:44",
            "epoch_date_close_approach": 1351014240000,
            "relative_velocity": {
                "kilometers_per_second": "4.4703444957",
                "kilometers_per_hour": "16093.2401845859",
                "miles_per_hour": "9999.7136024723"
            },
            "miss_distance": {
                "astronomical": "0.2036631037",
                "lunar": "79.2249473393",
                "kilometers": "30467566.511109119",
                "miles": "18931667.9568950822"
            },
            "orbiting_body": "Earth"
        }
    ],
    "orbital_data": {
        "orbit_id": "9",
        "orbit_determination_date": "2017-04-06 08:48:35",
        "first_observation_date": "2012-10-11",
        "last_observation_date": "2012-11-17",
        "data_arc_in_days": 37,
        "observations_used": 22,
        "orbit_uncertainty": "7",
        "minimum_orbit_intersection": ".207203",
        "jupiter_tisserand_invariant": "3.092",
        "epoch_osculation": "2459000.5",
        "eccentricity": ".563327068631396",
        "semi_major_axis": "2.750148153096011",
        "inclination": "2.969001870993067",
        "ascending_node_longitude": "210.4567343277298",
        "orbital_period": "1665.837223816377",
        "perihelion_distance": "1.200915255710387",
        "perihelion_argument": "182.5758526067703",
        "aphelion_distance": "4.299381050481634",
        "perihelion_time": "2459553.307518840963",
        "mean_anomaly": "240.5341218592655",
        "mean_motion": ".2161075493170048",
        "equinox": "J2000",
        "orbit_class": {
            "orbit_class_type": "AMO",
            "orbit_class_description": "Near-Earth asteroid orbits similar to that of 1221 Amor",
            "orbit_class_range": "1.017 AU < q (perihelion) < 1.3 AU"
        }
    },
    "is_sentry_object": false
}